PERSEUS-M1              
1 40039U 14033AF  26129.83304736  .00001096  00000+0  10433-3 0  9990
2 40039  97.9623  73.3450 0012927  67.5453 292.7134 14.95500822644904
POLYITAN-1              
1 40042U 14033AJ  26129.79088125  .00012654  00000+0  41269-3 0  9993
2 40042  98.0980 152.4592 0005361 281.1819  78.8818 15.31948174647717
TIGRISAT                
1 40043U 14033AK  26129.84500323  .00001683  00000+0  19958-3 0  9999
2 40043  97.7787 280.7503 0049035 198.8572 161.0828 14.84998639639931
AEROCUBE 6A             
1 40045U 14033AM  26129.74568801  .00005476  00000+0  46498-3 0  9998
2 40045  97.7209 297.1230 0040123 142.4646 217.9390 14.97677804640868
AEROCUBE 6B             
1 40046U 14033AN  26129.71824144  .00004745  00000+0  38975-3 0  9990
2 40046  97.7179 296.8101 0037674 135.8752 224.5488 14.99103655640995
CANX-4                  
1 40055U 14034C   26129.64706264  .00000641  00000+0  89677-4 0  9992
2 40055  98.3174   3.5372 0013740 131.0705 229.1696 14.81192992638828
CANX-5                  
1 40056U 14034D   26129.64594031  .00000638  00000+0  89215-4 0  9994
2 40056  98.3175   3.5773 0013733 131.2810 228.9586 14.81210008629639
UKUBE-1                 
1 40074U 14037F   26129.81566926  .00006226  00000+0  35756-3 0  9997
2 40074  98.4250 129.0779 0000561  37.8040 322.3227 15.12941702642751
BRITE-PL2 (HEWELIUSZ)   
1 40119U 14049B   26129.80847353  .00001291  00000+0  12510-3 0  9995
2 40119  97.9055 241.5262 0012886 233.4380 126.5655 14.94451153635711
AEROCUBE 5C             
1 40965U 15058B   26129.81369087  .00002274  00000+0  20944-3 0  9991
2 40965  64.7689  21.9476 0129727  78.3622 283.2017 14.91234804359939
AEROCUBE 7              
1 40966U 15058C   26129.85173890  .00003236  00000+0  26713-3 0  9990
2 40966  64.7639   4.8629 0119542  77.0547 284.3886 14.95426422360224
FOX-1A (AO-85)          
1 40967U 15058D   26129.84871500  .00002394  00000+0  22290-3 0  9993
2 40967  64.7765  38.1056 0128864  71.6304 289.8772 14.90742413107855
SINOD-D 1               
1 40968U 15058E   26129.83425791  .00003308  00000+0  27287-3 0  9997
2 40968  64.7769  18.9901 0117359  68.4385 292.9188 14.95603975110927
SNAP-3 ALICE            
1 40970U 15058G   26129.67526943  .00051816  00000+0  80472-3 0  9995
2 40970  64.7528 236.2326 0032405  32.8881 327.4269 15.53047484110895
LMRST-SAT               
1 40971U 15058H   26129.79434731  .00002357  00000+0  22087-3 0  9996
2 40971  64.7771  34.5403 0130653  73.6587 287.8845 14.90367523107839
SNAP-3 EDDIE            
1 40972U 15058J   26129.69455324  .00055716  00000+0  82824-3 0  9999
2 40972  64.7445 227.1654 0032924  36.5602 323.7778 15.54200684113033
PROPCUBE 3              
1 40973U 15058K   26129.78975861  .00002907  00000+0  24893-3 0  9999
2 40973  64.7705  12.4792 0122856  75.2029 286.2658 14.93994448109066
BISONSAT                
1 40974U 15058L   26129.83254426  .00008892  00000+0  44309-3 0  9996
2 40974  64.7596 297.5648 0078609  63.9629 296.9561 15.15414606109808
SNAP-3 JIMI             
1 40975U 15058M   26129.84040694  .00004660  00000+0  32828-3 0  9990
2 40975  64.7664 341.0619 0104837  71.2370 290.0088 15.01903890108469
PROPCUBE 1 (FLORA)      
1 40976U 15058N   26129.84830272  .00002163  00000+0  21192-3 0  9998
2 40976  64.7755  54.0364 0129477  75.9247 285.6216 14.89002467110551
SINOD-D 3               
1 40977U 15058P   26129.81478549  .00003106  00000+0  26982-3 0  9991
2 40977  64.7739  35.6154 0117969  73.4550 287.9483 14.93720957109026
HORYU-4                 
1 41340U 16012D   26129.76747986  .00129383  00000+0  74260-3 0  9993
2 41340  30.9893 356.5603 0005847 357.1247   2.9376 15.77249913564715
RAVAN                   
1 41849U 16067B   26129.63599506  .00031363  00000+0  53593-3 0  9992
2 41849  97.9938  14.8640 0007161 128.4610 231.7283 15.51221337521715
CELTEE 1                
1 41850U 16067C   26129.61698156  .00003853  00000+0  18622-3 0  9990
2 41850  98.0723 353.5552 0001942  62.8324 297.3107 15.19302856520026
OPTICUBE 04             
1 41851U 16067D   26129.83254350  .00001099  00000+0  72930-4 0  9992
2 41851  98.0744 340.1116 0014267 245.1865 114.7879 15.09497427519381
AEROCUBE 8D             
1 41852U 16067E   26129.61691389  .00005212  00000+0  21947-3 0  9998
2 41852  98.0737 356.8611 0001873 267.0195  93.0825 15.23860553520197
AEROCUBE 8C             
1 41853U 16067F   26129.84498868  .00005283  00000+0  22077-3 0  9994
2 41853  98.0607 354.3844 0005225 177.3276 182.7988 15.24099286520221
CORVUS BC2              
1 42846U 17042X   26129.72846285  .00002775  00000+0  19394-3 0  9999
2 42846  97.4039 292.5891 0011970 240.5119 119.4915 15.06050024481279
CORVUS BC1              
1 42847U 17042Y   26129.39527538  .00003122  00000+0  21672-3 0  9999
2 42847  97.4070 293.0577 0011149 215.5186 144.5301 15.06221332481254
MAKERSAT 0              
1 43016U 17073D   26129.62532806  .00018573  00000+0  52045-3 0  9996
2 43016  97.4679  11.8824 0112259  50.9128 310.2032 15.30462530460568
