OBJECT_NAME,OBJECT_ID,EPOCH,MEAN_MOTION,ECCENTRICITY,INCLINATION,RA_OF_ASC_NODE,ARG_OF_PERICENTER,MEAN_ANOMALY,EPHEMERIS_TYPE,CLASSIFICATION_TYPE,NORAD_CAT_ID,ELEMENT_SET_NO,REV_AT_EPOCH,BSTAR,MEAN_MOTION_DOT,MEAN_MOTION_DDOT
PERSEUS-M1,2014-033AF,2026-05-09T19:59:35.291904,14.95500822,.0012927,97.9623,73.3450,67.5453,292.7134,0,U,40039,999,64490,.10433E-3,.1096E-4,0
POLYITAN-1,2014-033AJ,2026-05-09T18:58:52.140000,15.31948174,.0005361,98.0980,152.4592,281.1819,78.8818,0,U,40042,999,64771,.41269E-3,.12654E-3,0
TIGRISAT,2014-033AK,2026-05-09T20:16:48.279072,14.84998639,.0049035,97.7787,280.7503,198.8572,161.0828,0,U,40043,999,63993,.19958E-3,.1683E-4,0
AEROCUBE 6A,2014-033AM,2026-05-09T17:53:47.444064,14.97677804,.0040123,97.7209,297.1230,142.4646,217.9390,0,U,40045,999,64086,.46498E-3,.5476E-4,0
AEROCUBE 6B,2014-033AN,2026-05-09T17:14:16.060416,14.99103655,.0037674,97.7179,296.8101,135.8752,224.5488,0,U,40046,999,64099,.38975E-3,.4745E-4,0
CANX-4,2014-034C,2026-05-09T15:31:46.212096,14.81192992,.001374,98.3174,3.5372,131.0705,229.1696,0,U,40055,999,63882,.89677E-4,.641E-5,0
CANX-5,2014-034D,2026-05-09T15:30:09.242784,14.81210008,.0013733,98.3175,3.5773,131.2810,228.9586,0,U,40056,999,62963,.89215E-4,.638E-5,0
UKUBE-1,2014-037F,2026-05-09T19:34:33.824064,15.12941702,.0000561,98.4250,129.0779,37.8040,322.3227,0,U,40074,999,64275,.35756E-3,.6226E-4,0
BRITE-PL2 (HEWELIUSZ),2014-049B,2026-05-09T19:24:12.112992,14.94451153,.0012886,97.9055,241.5262,233.4380,126.5655,0,U,40119,999,63571,.1251E-3,.1291E-4,0
AEROCUBE 5C,2015-058B,2026-05-09T19:31:42.891168,14.91234804,.0129727,64.7689,21.9476,78.3622,283.2017,0,U,40965,999,35993,.20944E-3,.2274E-4,0
AEROCUBE 7,2015-058C,2026-05-09T20:26:30.240960,14.95426422,.0119542,64.7639,4.8629,77.0547,284.3886,0,U,40966,999,36022,.26713E-3,.3236E-4,0
FOX-1A (AO-85),2015-058D,2026-05-09T20:22:08.976000,14.90742413,.0128864,64.7765,38.1056,71.6304,289.8772,0,U,40967,999,10785,.2229E-3,.2394E-4,0
SINOD-D 1,2015-058E,2026-05-09T20:01:19.883424,14.95603975,.0117359,64.7769,18.9901,68.4385,292.9188,0,U,40968,999,11092,.27287E-3,.3308E-4,0
SNAP-3 ALICE,2015-058G,2026-05-09T16:12:23.278752,15.53047484,.0032405,64.7528,236.2326,32.8881,327.4269,0,U,40970,999,11089,.80472E-3,.51816E-3,0
LMRST-SAT,2015-058H,2026-05-09T19:03:51.607584,14.90367523,.0130653,64.7771,34.5403,73.6587,287.8845,0,U,40971,999,10783,.22087E-3,.2357E-4,0
SNAP-3 EDDIE,2015-058J,2026-05-09T16:40:09.399936,15.54200684,.0032924,64.7445,227.1654,36.5602,323.7778,0,U,40972,999,11303,.82824E-3,.55716E-3,0
PROPCUBE 3,2015-058K,2026-05-09T18:57:15.143904,14.93994448,.0122856,64.7705,12.4792,75.2029,286.2658,0,U,40973,999,10906,.24893E-3,.2907E-4,0
BISONSAT,2015-058L,2026-05-09T19:58:51.824064,15.15414606,.0078609,64.7596,297.5648,63.9629,296.9561,0,U,40974,999,10980,.44309E-3,.8892E-4,0
SNAP-3 JIMI,2015-058M,2026-05-09T20:10:11.159616,15.01903890,.0104837,64.7664,341.0619,71.2370,290.0088,0,U,40975,999,10846,.32828E-3,.466E-4,0
PROPCUBE 1 (FLORA),2015-058N,2026-05-09T20:21:33.355008,14.89002467,.0129477,64.7755,54.0364,75.9247,285.6216,0,U,40976,999,11055,.21192E-3,.2163E-4,0
SINOD-D 3,2015-058P,2026-05-09T19:33:17.466336,14.93720957,.0117969,64.7739,35.6154,73.4550,287.9483,0,U,40977,999,10902,.26982E-3,.3106E-4,0
HORYU-4,2016-012D,2026-05-09T18:25:10.259904,15.77249913,.0005847,30.9893,356.5603,357.1247,2.9376,0,U,41340,999,56471,.7426E-3,.129383E-2,0
RAVAN,2016-067B,2026-05-09T15:15:49.973184,15.51221337,.0007161,97.9938,14.8640,128.4610,231.7283,0,U,41849,999,52171,.53593E-3,.31363E-3,0
CELTEE 1,2016-067C,2026-05-09T14:48:27.206784,15.19302856,.0001942,98.0723,353.5552,62.8324,297.3107,0,U,41850,999,52002,.18622E-3,.3853E-4,0
OPTICUBE 04,2016-067D,2026-05-09T19:58:51.758400,15.09497427,.0014267,98.0744,340.1116,245.1865,114.7879,0,U,41851,999,51938,.7293E-4,.1099E-4,0
AEROCUBE 8D,2016-067E,2026-05-09T14:48:21.360096,15.23860553,.0001873,98.0737,356.8611,267.0195,93.0825,0,U,41852,999,52019,.21947E-3,.5212E-4,0
AEROCUBE 8C,2016-067F,2026-05-09T20:16:47.021952,15.24099286,.0005225,98.0607,354.3844,177.3276,182.7988,0,U,41853,999,52022,.22077E-3,.5283E-4,0
CORVUS BC2,2017-042X,2026-05-09T17:28:59.190240,15.06050024,.001197,97.4039,292.5891,240.5119,119.4915,0,U,42846,999,48127,.19394E-3,.2775E-4,0
CORVUS BC1,2017-042Y,2026-05-09T09:29:11.792832,15.06221332,.0011149,97.4070,293.0577,215.5186,144.5301,0,U,42847,999,48125,.21672E-3,.3122E-4,0
MAKERSAT 0,2017-073D,2026-05-09T15:00:28.344384,15.30462530,.0112259,97.4679,11.8824,50.9128,310.2032,0,U,43016,999,46056,.52045E-3,.18573E-3,0
